[
    {
        "CCSDS_OMM_VERS": "3.0",
        "COMMENT": "GENERATED VIA SPACE-TRACK.ORG API",
        "CREATION_DATE": "2025-05-04T02:26:54",
        "ORIGINATOR": "18 SPCS",
        "OBJECT_NAME": "QZS-6",
        "OBJECT_ID": "2025-023A",
        "CENTER_NAME": "EARTH",
        "REF_FRAME": "TEME",
        "TIME_SYSTEM": "UTC",
        "MEAN_ELEMENT_THEORY": "SGP4",
        "EPOCH": "2025-05-03T23:09:39.602016",
        "MEAN_MOTION": "1.00272757",
        "ECCENTRICITY": "0.00017050",
        "INCLINATION": "0.0464",
        "RA_OF_ASC_NODE": "350.9036",
        "ARG_OF_PERICENTER": "42.1231",
        "MEAN_ANOMALY": "267.0086",
        "EPHEMERIS_TYPE": "0",
        "CLASSIFICATION_TYPE": "U",
        "NORAD_CAT_ID": "62876",
        "ELEMENT_SET_NO": "999",
        "REV_AT_EPOCH": "85",
        "BSTAR": "0.00000000000000",
        "MEAN_MOTION_DOT": "-0.00000245",
        "MEAN_MOTION_DDOT": "0.0000000000000",
        "SEMIMAJOR_AXIS": "42164.459",
        "PERIOD": "1436.083",
        "APOAPSIS": "35793.514",
        "PERIAPSIS": "35779.135",
        "OBJECT_TYPE": "PAYLOAD",
        "RCS_SIZE": null,
        "COUNTRY_CODE": "JPN",
        "LAUNCH_DATE": "2025-02-02",
        "SITE": "TNSTA",
        "DECAY_DATE": null,
        "FILE": "4718307",
        "GP_ID": "286812007",
        "TLE_LINE0": "0 QZS-6",
        "TLE_LINE1": "1 62876U 25023A   25123.96504169 -.00000245  00000-0  00000-0 0  9996",
        "TLE_LINE2": "2 62876   0.0464 350.9036 0001705  42.1231 267.0086  1.00272757   850"
    }
]